{
  "type": "FeatureCollection",
  "features": [
    {
      "type": "Feature",
      "properties": {
        "norad_id": 36058,
        "name": "COSMOS 2251 DEB",
        "group": "cosmos-2251-debris",
        "lat": 66.42056586362033,
        "lon": -170.65225688993112,
        "alt_km": 684.688359500753,
        "timestamp": "2025-12-03T20:47:58.622956+00:00",
        "meta_object_name": "COSMOS 2251 DEB",
        "meta_object_id": "1993-036AXV",
        "meta_epoch": "2025-12-02T21:15:38.245248",
        "meta_mean_motion": 14.58601869,
        "meta_eccentricity": 0.00452241,
        "meta_inclination": 74.0244,
        "meta_ra_of_asc_node": 52.2381,
        "meta_arg_of_pericenter": 188.8228,
        "meta_mean_anomaly": 171.2148,
        "meta_ephemeris_type": 0,
        "meta_classification_type": "U",
        "meta_norad_cat_id": 36058,
        "meta_element_set_no": 999,
        "meta_rev_at_epoch": 65967,
        "meta_bstar": 0.00090546257,
        "meta_mean_motion_dot": 4.247e-05,
        "meta_mean_motion_ddot": 0,
        "tle_line1": "1 36058U 93036AXV 25336.88585932  .00004247  00000+0  90546-3 0  9993",
        "tle_line2": "2 36058  74.0244  52.2381 0045224 188.8228 171.2148 14.58601869659675"
      },
      "geometry": {
        "type": "Point",
        "coordinates": [
          -170.65225688993112,
          66.42056586362033
        ]
      }
    },
    {
      "type": "Feature",
      "properties": {
        "norad_id": 36060,
        "name": "COSMOS 2251 DEB",
        "group": "cosmos-2251-debris",
        "lat": -2.7648570639545684,
        "lon": 71.81226258984877,
        "alt_km": 765.3512024432894,
        "timestamp": "2025-12-03T20:47:58.622966+00:00",
        "meta_object_name": "COSMOS 2251 DEB",
        "meta_object_id": "1993-036AXX",
        "meta_epoch": "2025-12-03T11:37:45.033600",
        "meta_mean_motion": 14.41963836,
        "meta_eccentricity": 0.0014967,
        "meta_inclination": 74.0291,
        "meta_ra_of_asc_node": 251.7281,
        "meta_arg_of_pericenter": 349.8099,
        "meta_mean_anomaly": 10.2751,
        "meta_ephemeris_type": 0,
        "meta_classification_type": "U",
        "meta_norad_cat_id": 36060,
        "meta_element_set_no": 999,
        "meta_rev_at_epoch": 84876,
        "meta_bstar": 0.00052284,
        "meta_mean_motion_dot": 1.69e-05,
        "meta_mean_motion_ddot": 0,
        "tle_line1": "1 36060U 93036AXX 25337.48454900  .00001690  00000+0  52284-3 0  9999",
        "tle_line2": "2 36060  74.0291 251.7281 0014967 349.8099  10.2751 14.41963836848769"
      },
      "geometry": {
        "type": "Point",
        "coordinates": [
          71.81226258984877,
          -2.7648570639545684
        ]
      }
    },
    {
      "type": "Feature",
      "properties": {
        "norad_id": 36061,
        "name": "COSMOS 2251 DEB",
        "group": "cosmos-2251-debris",
        "lat": -73.97514477689414,
        "lon": -78.12803375508607,
        "alt_km": 811.5042163069711,
        "timestamp": "2025-12-03T20:47:58.622977+00:00",
        "meta_object_name": "COSMOS 2251 DEB",
        "meta_object_id": "1993-036AXY",
        "meta_epoch": "2025-12-03T11:10:42.745728",
        "meta_mean_motion": 14.33684689,
        "meta_eccentricity": 0.0036872,
        "meta_inclination": 74.0244,
        "meta_ra_of_asc_node": 16.7348,
        "meta_arg_of_pericenter": 107.6281,
        "meta_mean_anomaly": 252.8902,
        "meta_ephemeris_type": 0,
        "meta_classification_type": "U",
        "meta_norad_cat_id": 36061,
        "meta_element_set_no": 999,
        "meta_rev_at_epoch": 64971,
        "meta_bstar": 0.00039803,
        "meta_mean_motion_dot": 1.087e-05,
        "meta_mean_motion_ddot": 0,
        "tle_line1": "1 36061U 93036AXY 25337.46577252  .00001087  00000+0  39803-3 0  9996",
        "tle_line2": "2 36061  74.0244  16.7348 0036872 107.6281 252.8902 14.33684689649716"
      },
      "geometry": {
        "type": "Point",
        "coordinates": [
          -78.12803375508607,
          -73.97514477689414
        ]
      }
    },
    {
      "type": "Feature",
      "properties": {
        "norad_id": 36073,
        "name": "COSMOS 2251 DEB",
        "group": "cosmos-2251-debris",
        "lat": -33.41987341584304,
        "lon": -32.065421977776815,
        "alt_km": 779.4431791961315,
        "timestamp": "2025-12-03T20:47:58.622987+00:00",
        "meta_object_name": "COSMOS 2251 DEB",
        "meta_object_id": "1993-036AYL",
        "meta_epoch": "2025-12-02T18:11:25.029312",
        "meta_mean_motion": 14.34931351,
        "meta_eccentricity": 0.00234518,
        "meta_inclination": 74.0318,
        "meta_ra_of_asc_node": 340.8572,
        "meta_arg_of_pericenter": 51.9571,
        "meta_mean_anomaly": 308.3693,
        "meta_ephemeris_type": 0,
        "meta_classification_type": "U",
        "meta_norad_cat_id": 36073,
        "meta_element_set_no": 999,
        "meta_rev_at_epoch": 70064,
        "meta_bstar": 0.00029028111,
        "meta_mean_motion_dot": 8.02e-06,
        "meta_mean_motion_ddot": 0,
        "tle_line1": "1 36073U 93036AYL 25336.75792858  .00000802  00000+0  29028-3 0  9993",
        "tle_line2": "2 36073  74.0318 340.8572 0023451  51.9571 308.3693 14.34931351700649"
      },
      "geometry": {
        "type": "Point",
        "coordinates": [
          -32.065421977776815,
          -33.41987341584304
        ]
      }
    },
    {
      "type": "Feature",
      "properties": {
        "norad_id": 36074,
        "name": "COSMOS 2251 DEB",
        "group": "cosmos-2251-debris",
        "lat": -3.520974038834059,
        "lon": 178.03293475103644,
        "alt_km": 750.4585709811427,
        "timestamp": "2025-12-03T20:47:58.622997+00:00",
        "meta_object_name": "COSMOS 2251 DEB",
        "meta_object_id": "1993-036AYM",
        "meta_epoch": "2025-12-03T11:38:27.519072",
        "meta_mean_motion": 14.43635924,
        "meta_eccentricity": 0.0042295,
        "meta_inclination": 73.9916,
        "meta_ra_of_asc_node": 357.7317,
        "meta_arg_of_pericenter": 92.4077,
        "meta_mean_anomaly": 268.1923,
        "meta_ephemeris_type": 0,
        "meta_classification_type": "U",
        "meta_norad_cat_id": 36074,
        "meta_element_set_no": 999,
        "meta_rev_at_epoch": 85776,
        "meta_bstar": 0.0012217,
        "meta_mean_motion_dot": 4.165e-05,
        "meta_mean_motion_ddot": 0,
        "tle_line1": "1 36074U 93036AYM 25337.48504073  .00004165  00000+0  12217-2 0  9992",
        "tle_line2": "2 36074  73.9916 357.7317 0042295  92.4077 268.1923 14.43635924857766"
      },
      "geometry": {
        "type": "Point",
        "coordinates": [
          178.03293475103644,
          -3.520974038834059
        ]
      }
    },
    {
      "type": "Feature",
      "properties": {
        "norad_id": 36366,
        "name": "COSMOS 2251 DEB",
        "group": "cosmos-2251-debris",
        "lat": 74.05525957107818,
        "lon": 18.9084456574782,
        "alt_km": 815.7774114373724,
        "timestamp": "2025-12-03T20:47:58.623008+00:00",
        "meta_object_name": "COSMOS 2251 DEB",
        "meta_object_id": "1993-036AYT",
        "meta_epoch": "2025-12-02T05:51:07.218720",
        "meta_mean_motion": 14.33192884,
        "meta_eccentricity": 0.0091167,
        "meta_inclination": 74.0653,
        "meta_ra_of_asc_node": 292.2194,
        "meta_arg_of_pericenter": 322.5756,
        "meta_mean_anomaly": 36.9067,
        "meta_ephemeris_type": 0,
        "meta_classification_type": "U",
        "meta_norad_cat_id": 36366,
        "meta_element_set_no": 999,
        "meta_rev_at_epoch": 86138,
        "meta_bstar": 0.0027816,
        "meta_mean_motion_dot": 7.987e-05,
        "meta_mean_motion_ddot": 0,
        "tle_line1": "1 36366U 93036AYT 25336.24383355  .00007987  00000+0  27816-2 0  9993",
        "tle_line2": "2 36366  74.0653 292.2194 0091167 322.5756  36.9067 14.33192884861384"
      },
      "geometry": {
        "type": "Point",
        "coordinates": [
          18.9084456574782,
          74.05525957107818
        ]
      }
    },
    {
      "type": "Feature",
      "properties": {
        "norad_id": 36367,
        "name": "COSMOS 2251 DEB",
        "group": "cosmos-2251-debris",
        "lat": -4.249415315908733,
        "lon": 67.60083924270627,
        "alt_km": 1082.863562724693,
        "timestamp": "2025-12-03T20:47:58.623018+00:00",
        "meta_object_name": "COSMOS 2251 DEB",
        "meta_object_id": "1993-036AYU",
        "meta_epoch": "2025-12-01T12:28:20.175744",
        "meta_mean_motion": 13.86234419,
        "meta_eccentricity": 0.02628434,
        "meta_inclination": 74.101,
        "meta_ra_of_asc_node": 250.3439,
        "meta_arg_of_pericenter": 325.6692,
        "meta_mean_anomaly": 32.7682,
        "meta_ephemeris_type": 0,
        "meta_classification_type": "U",
        "meta_norad_cat_id": 36367,
        "meta_element_set_no": 999,
        "meta_rev_at_epoch": 57374,
        "meta_bstar": 0.0014810929,
        "meta_mean_motion_dot": 2.22e-05,
        "meta_mean_motion_ddot": 0,
        "tle_line1": "1 36367U 93036AYU 25335.51967796  .00002220  00000+0  14811-2 0  9996",
        "tle_line2": "2 36367  74.1010 250.3439 0262843 325.6692  32.7682 13.86234419573749"
      },
      "geometry": {
        "type": "Point",
        "coordinates": [
          67.60083924270627,
          -4.249415315908733
        ]
      }
    }
  ]
}